{
  "norad_id": 45565,
  "name": "STARLINK-1357",
  "history": [
    {
      "epoch": "2026-03-28T21:36:02.524608",
      "apogee_km": 391.7966489748251,
      "perigee_km": 386.8512592080124,
      "latitude_deg": 27.43060850474515,
      "longitude_deg": -97.09719488001429,
      "semi_major_axis_km": 6767.460954091418,
      "eccentricity": 0.00036538,
      "inclination_deg": 53.0505,
      "raan_deg": 304.7797,
      "arg_perigee_deg": 198.4179,
      "mean_anomaly_deg": 161.6702,
      "mean_motion_rev_day": 15.59423677
    }
  ]
}