{"fetched_at":"2026-03-29T16:36:15Z","count":15609,"tles":[{"name":"STARLINK-1357","line1":"1 45565U 20025AL  26087.90002922  .00068118  00000+0  84488-3 0  9999","line2":"2 45565  53.0505 304.7797 0003653 198.4179 161.6702 15.59423677329059","category":"Starlink"}]}